EVENT_NAME: None
EVENT_ID: EMSC-20160824_0000006
EVENT_DATE_YYYYMMDD: 20160824
EVENT_TIME_HHMMSS: 013632
EVENT_LATITUDE_DEGREE: 42.6983
EVENT_LONGITUDE_DEGREE: 13.2335
EVENT_DEPTH_KM: 8.1
HYPOCENTER_REFERENCE: Spallarossa_et_al_2021
MAGNITUDE_W: 6.0
MAGNITUDE_W_REFERENCE: TDMT-INGV
MAGNITUDE_L: 
MAGNITUDE_L_REFERENCE: 
FOCAL_MECHANISM: Normal faulting
NETWORK: IT
STATION_CODE: AMT
STATION_NAME: AMATRICE
STATION_LATITUDE_DEGREE: 42.632500
STATION_LONGITUDE_DEGREE: 13.286600
STATION_ELEVATION_M: 933
LOCATION: 
SENSOR_DEPTH_M: 0.0
VS30_M/S: 670
SITE_CLASSIFICATION_EC8: B
MORPHOLOGIC_CLASSIFICATION: 
EPICENTRAL_DISTANCE_KM: 8.5
EARTHQUAKE_BACKAZIMUTH_DEGREE: 149.2
DATE_TIME_FIRST_SAMPLE_YYYYMMDD_HHMMSS: 
DATE_TIME_FIRST_SAMPLE_PRECISION: 
SAMPLING_INTERVAL_S: 
NDATA: 105
DURATION_S: 
STREAM: HGE
UNITS: cm
INSTRUMENT: HG
INSTRUMENT_ANALOG/DIGITAL: D
INSTRUMENTAL_FREQUENCY_HZ: 
INSTRUMENTAL_DAMPING: 
FULL_SCALE_G: 
N_BIT_DIGITAL_CONVERTER: 
PGD_CM: -3.265488
TIME_PGD_S: 
BASELINE_CORRECTION: BASELINE REMOVED
FILTER_TYPE: BUTTERWORTH
FILTER_ORDER: 2
LOW_CUT_FREQUENCY_HZ: 0.060
HIGH_CUT_FREQUENCY_HZ: 40.000
LATE/NORMAL_TRIGGERED: NT
DATABASE_VERSION: 0.5
HEADER_FORMAT: DYNA 1.2
DATA_TYPE: DISPLACEMENT RESPONSE SPECTRUM
PROCESSING: manual (Paolucci et al., 2011)
DATA_TIMESTAMP_YYYYMMDD_HHMMSS: 20260223_162426.875
DATA_LICENSE: CC-BY3_0-IT (http://creativecommons.org/licenses/by/3.0/deed.en)
DATA_CITATION: Felicetta C., Russo E., D Amico M., Sgobba S., Lanzano G., Mascandola C., Pacor F., Luzi L. (2023) Italian Accelerometric Archive v 4.0 - Istituto Nazionale di Geofisica e Vulcanologia, Dipartimento della Protezione Civile Nazionale. doi: 10.13127/itaca.4.0
DATA_CREATOR: ITACA working group
ORIGINAL_DATA_MEDIATOR_CITATION: Ufficio Rischio Sismico e Vulcanico del Dipartimento della Protezione Civile (http://www.protezionecivile.gov.it/)
ORIGINAL_DATA_MEDIATOR: Rete Accelerometrica Nazionale - RAN Download (http://www.mot1.it/randownload/)
ORIGINAL_DATA_CREATOR_CITATION: Presidency Of Counsil Of Ministers-Civil Protection Department. (1972). Italian Strong Motion Network. Presidency of Counsil of Ministers - Civil Protection Department. https://doi.org/10.7914/SN/IT http://www.fdsn.org/networks/detail/IT/
ORIGINAL_DATA_CREATOR: network: IT (Italian Strong Motion Network (RAN)); owner: Presidency of Counsil of Ministers - Civil Protection Department (PCM - DPC)
USER1: 
USER2: 
USER3: 
USER4: 
USER5: 
    0.010000     0.002160
    0.020000     0.008920
    0.022000     0.010936
    0.025000     0.014285
    0.029000     0.019110
    0.030000     0.019955
    0.032000     0.022355
    0.035001     0.028118
    0.036000     0.030200
    0.040000     0.036284
    0.041999     0.041405
    0.044001     0.046070
    0.045000     0.048239
    0.046000     0.050048
    0.048001     0.055460
    0.050000     0.062115
    0.054999     0.092402
    0.059999     0.111324
    0.064998     0.119705
    0.067002     0.116417
    0.069999     0.109078
    0.075002     0.127996
    0.080000     0.156290
    0.084998     0.205070
    0.090001     0.245093
    0.095003     0.298524
    0.100000     0.339878
    0.109999     0.451772
    0.120005     0.583393
    0.130005     0.662292
    0.132996     0.688659
    0.139997     0.767267
    0.149993     1.011721
    0.160000     0.980358
    0.170010     1.071629
    0.179986     1.348333
    0.190006     1.733640
    0.200000     2.000070
    0.220022     2.657581
    0.239981     3.232587
    0.250000     3.314796
    0.260010     3.282477
    0.280034     3.474093
    0.290023     3.736201
    0.300030     4.070486
    0.320000     4.781930
    0.340020     5.275220
    0.350017     5.414322
    0.359971     5.502182
    0.379939     5.540821
    0.400000     5.634029
    0.419992     5.595036
    0.439947     5.447303
    0.450045     5.341936
    0.459982     5.221242
    0.480077     4.963740
    0.500000     4.696582
    0.550055     4.147701
    0.599880     4.212564
    0.650195     4.458481
    0.667111     4.568324
    0.699790     4.788145
    0.750188     5.097535
    0.800000     5.332161
    0.850340     5.485757
    0.900090     5.563495
    0.949668     5.572356
    1.000000     5.526363
    1.100110     5.295546
    1.200480     4.937638
    1.300390     4.512782
    1.400560     4.073930
    1.499250     3.744087
    1.600000     3.736607
    1.700680     3.973101
    1.798561     4.474604
    1.901141     3.778556
    2.000000     3.604546
    2.197802     3.691086
    2.398082     5.041996
    2.500000     5.462106
    2.597403     5.562860
    2.801121     5.211822
    3.003003     5.169804
    3.205128     4.949941
    3.401361     4.815669
    3.496503     4.793513
    3.597122     4.790793
    3.802281     4.802547
    4.000000     4.826575
    4.201681     4.861388
    4.405286     4.843412
    4.608295     4.755633
    4.807692     4.600718
    5.000000     4.393237
    5.494505     3.768970
    5.988024     3.515440
    6.493506     3.481816
    6.993007     3.449448
    7.518797     3.420473
    8.000000     3.395235
    8.474576     3.374846
    9.009009     3.359075
    9.523809     3.347927
   10.000000     3.337871
