EVENT_NAME: None
EVENT_ID: EMSC-20160824_0000006
EVENT_DATE_YYYYMMDD: 20160824
EVENT_TIME_HHMMSS: 013632
EVENT_LATITUDE_DEGREE: 42.6983
EVENT_LONGITUDE_DEGREE: 13.2335
EVENT_DEPTH_KM: 8.1
HYPOCENTER_REFERENCE: Spallarossa_et_al_2021
MAGNITUDE_W: 6.0
MAGNITUDE_W_REFERENCE: TDMT-INGV
MAGNITUDE_L: 
MAGNITUDE_L_REFERENCE: 
FOCAL_MECHANISM: Normal faulting
NETWORK: IT
STATION_CODE: AMT
STATION_NAME: AMATRICE
STATION_LATITUDE_DEGREE: 42.632500
STATION_LONGITUDE_DEGREE: 13.286600
STATION_ELEVATION_M: 933
LOCATION: 
SENSOR_DEPTH_M: 0.0
VS30_M/S: 670
SITE_CLASSIFICATION_EC8: B
MORPHOLOGIC_CLASSIFICATION: 
EPICENTRAL_DISTANCE_KM: 8.5
EARTHQUAKE_BACKAZIMUTH_DEGREE: 149.2
DATE_TIME_FIRST_SAMPLE_YYYYMMDD_HHMMSS: 20160824_013629.104
DATE_TIME_FIRST_SAMPLE_PRECISION: milliseconds
SAMPLING_INTERVAL_S: 0.005000
NDATA: 5579
DURATION_S: 27.895
STREAM: HGE
UNITS: cm
INSTRUMENT: HG
INSTRUMENT_ANALOG/DIGITAL: D
INSTRUMENTAL_FREQUENCY_HZ: 
INSTRUMENTAL_DAMPING: 
FULL_SCALE_G: 
N_BIT_DIGITAL_CONVERTER: 
PGD_CM: -3.265488
TIME_PGD_S: 8.970000
BASELINE_CORRECTION: BASELINE REMOVED
FILTER_TYPE: BUTTERWORTH
FILTER_ORDER: 2
LOW_CUT_FREQUENCY_HZ: 0.060
HIGH_CUT_FREQUENCY_HZ: 40.000
LATE/NORMAL_TRIGGERED: NT
DATABASE_VERSION: 0.5
HEADER_FORMAT: DYNA 1.2
DATA_TYPE: DISPLACEMENT
PROCESSING: manual (Paolucci et al., 2011)
DATA_TIMESTAMP_YYYYMMDD_HHMMSS: 20260223_162425.255
DATA_LICENSE: CC-BY3_0-IT (http://creativecommons.org/licenses/by/3.0/deed.en)
DATA_CITATION: Felicetta C., Russo E., D Amico M., Sgobba S., Lanzano G., Mascandola C., Pacor F., Luzi L. (2023) Italian Accelerometric Archive v 4.0 - Istituto Nazionale di Geofisica e Vulcanologia, Dipartimento della Protezione Civile Nazionale. doi: 10.13127/itaca.4.0
DATA_CREATOR: ITACA working group
ORIGINAL_DATA_MEDIATOR_CITATION: Ufficio Rischio Sismico e Vulcanico del Dipartimento della Protezione Civile (http://www.protezionecivile.gov.it/)
ORIGINAL_DATA_MEDIATOR: Rete Accelerometrica Nazionale - RAN Download (http://www.mot1.it/randownload/)
ORIGINAL_DATA_CREATOR_CITATION: Presidency Of Counsil Of Ministers-Civil Protection Department. (1972). Italian Strong Motion Network. Presidency of Counsil of Ministers - Civil Protection Department. https://doi.org/10.7914/SN/IT http://www.fdsn.org/networks/detail/IT/
ORIGINAL_DATA_CREATOR: network: IT (Italian Strong Motion Network (RAN)); owner: Presidency of Counsil of Ministers - Civil Protection Department (PCM - DPC)
USER1: 
USER2: 
USER3: 
USER4: 
USER5: 
[...]
3.091670e-03
3.057601e-03
3.023433e-03
2.989179e-03
2.954977e-03
2.920952e-03
2.887092e-03
2.853287e-03
2.819505e-03
2.785874e-03
2.752516e-03
2.719389e-03
2.686348e-03
2.653353e-03
2.620534e-03
2.587972e-03
2.555510e-03
2.522995e-03
2.490587e-03
2.458504e-03
2.426640e-03
2.394764e-03
2.362879e-03
2.331107e-03
2.299456e-03
2.267906e-03
2.236531e-03
2.205426e-03
2.174575e-03
2.143871e-03
2.113273e-03
2.082840e-03
2.052582e-03
2.022414e-03
1.992253e-03
1.962036e-03
1.931768e-03
1.901573e-03
1.871619e-03
1.841997e-03
1.812653e-03
1.783414e-03
1.754153e-03
1.724936e-03
1.695935e-03
1.667242e-03
1.638799e-03
1.610471e-03
1.582190e-03
1.554075e-03
1.526387e-03
1.499266e-03
1.472566e-03
1.446038e-03
1.419628e-03
1.393489e-03
1.367771e-03
1.342515e-03
1.317698e-03
1.293269e-03
1.269154e-03
1.245277e-03
1.221625e-03
1.198242e-03
1.175121e-03
1.152156e-03
1.129253e-03
1.106417e-03
1.083685e-03
1.061029e-03
1.038402e-03
1.015851e-03
9.935318e-04
9.716065e-04
9.501081e-04
9.288890e-04
9.077190e-04
8.864760e-04
8.652217e-04
8.440523e-04
8.229479e-04
8.018530e-04
7.808228e-04
7.599874e-04
7.394225e-04
7.191238e-04
6.990707e-04
6.792489e-04
6.596075e-04
6.400695e-04
6.206281e-04
6.013557e-04
5.822798e-04
5.633737e-04
5.446356e-04
5.260374e-04
5.075216e-04
4.891520e-04
4.710956e-04
4.534002e-04
4.359331e-04
4.185711e-04
4.013732e-04
3.845618e-04
3.683458e-04
3.527289e-04
3.375133e-04
3.225213e-04
3.077682e-04
2.934127e-04
2.795750e-04
2.661998e-04
2.531084e-04
2.401689e-04
2.273809e-04
2.148474e-04
2.026903e-04
1.909783e-04
1.797297e-04
1.689172e-04
1.584669e-04
1.483400e-04
1.385796e-04
1.291932e-04
1.200600e-04
1.110576e-04
1.022177e-04
9.362961e-05
8.526542e-05
7.704054e-05
6.896537e-05
6.112938e-05
5.358574e-05
4.629837e-05
3.922048e-05
3.238971e-05
2.587465e-05
1.969372e-05
1.385774e-05
8.415839e-06
3.412331e-06
-1.154161e-06
-5.344598e-06
-9.309738e-06
-1.321167e-05
-1.703816e-05
-2.063295e-05
-2.392437e-05
-2.696608e-05
-2.978087e-05
-3.228105e-05
-3.434092e-05
-3.590518e-05
-3.703468e-05
-3.785602e-05
-3.841810e-05
-3.864614e-05
-3.850949e-05
-3.811699e-05
-3.758083e-05
-3.688589e-05
-3.590866e-05
-3.450858e-05
-3.263075e-05
-3.036786e-05
-2.790538e-05
-2.538605e-05
-2.282556e-05
-2.015997e-05
-1.734738e-05
-1.436672e-05
-1.116161e-05
-7.687946e-06
-3.993887e-06
-1.569417e-07
3.868500e-06
8.242013e-06
1.304402e-05
1.818854e-05
2.354742e-05
2.908282e-05
3.484458e-05
4.088824e-05
4.721374e-05
5.378187e-05
6.061267e-05
6.782463e-05
7.548906e-05
8.352880e-05
9.189716e-05
1.007311e-04
1.101575e-04
1.200789e-04
1.302980e-04
1.407491e-04
1.515032e-04
1.625937e-04
1.739298e-04
1.854307e-04
1.971517e-04
2.091756e-04
2.214672e-04
2.339142e-04
2.464491e-04
2.591253e-04
2.720826e-04
2.853954e-04
2.990167e-04
3.129251e-04
3.272160e-04
3.420129e-04
3.573684e-04
3.732448e-04
3.895591e-04
4.062663e-04
4.233553e-04
4.407510e-04
4.583413e-04
4.761353e-04
4.942674e-04
5.128000e-04
5.316349e-04
5.506453e-04
5.697860e-04
5.890509e-04
6.084422e-04
6.280112e-04
6.478462e-04
6.680131e-04
6.885634e-04
7.095665e-04
7.310373e-04
7.528704e-04
7.749633e-04
7.973547e-04
8.201441e-04
8.433228e-04
8.667723e-04
8.904240e-04
9.143427e-04
9.386341e-04
9.633228e-04
9.883509e-04
1.013673e-03
1.039317e-03
1.065371e-03
1.091923e-03
1.118986e-03
1.146448e-03
1.174162e-03
1.202089e-03
1.230325e-03
1.258979e-03
1.288042e-03
1.317443e-03
1.347176e-03
1.377258e-03
1.407638e-03
1.438238e-03
1.469067e-03
1.500185e-03
1.531597e-03
1.563276e-03
1.595237e-03
1.627504e-03
1.660086e-03
1.692997e-03
1.726241e-03
1.759788e-03
1.793611e-03
1.827764e-03
1.862348e-03
1.897411e-03
1.932889e-03
1.968707e-03
2.004859e-03
2.041374e-03
2.078288e-03
2.115628e-03
2.153294e-03
2.191044e-03
2.228699e-03
2.266424e-03
2.304684e-03
2.343832e-03
2.383740e-03
2.423755e-03
2.463009e-03
2.501009e-03
2.538127e-03
2.575437e-03
2.614033e-03
2.654419e-03
2.696235e-03
2.738122e-03
2.778100e-03
2.815065e-03
2.850522e-03
2.888254e-03
2.931243e-03
2.978525e-03
3.025654e-03
3.069003e-03
3.109430e-03
3.151002e-03
3.196096e-03
3.242539e-03
3.285719e-03
3.322704e-03
3.354200e-03
3.383630e-03
3.414805e-03
3.449502e-03
3.486591e-03
3.524058e-03
3.562203e-03
3.604036e-03
3.651717e-03
3.703126e-03
3.753014e-03
3.797902e-03
3.839332e-03
3.881707e-03
3.927393e-03
3.975159e-03
4.023585e-03
4.074411e-03
4.131303e-03
4.196312e-03
4.268802e-03
4.346513e-03
4.425587e-03
4.500108e-03
4.563894e-03
4.613838e-03
4.651170e-03
4.679262e-03
4.700104e-03
4.712954e-03
4.717230e-03
4.717353e-03
4.723501e-03
4.745819e-03
4.788237e-03
4.848658e-03
4.923212e-03
5.008621e-03
5.102575e-03
5.204272e-03
5.313441e-03
5.427657e-03
5.542215e-03
5.653108e-03
5.758111e-03
5.854862e-03
5.940067e-03
6.011165e-03
6.068227e-03
6.114651e-03
6.155732e-03
6.194554e-03
6.228306e-03
6.250020e-03
6.255054e-03
6.245659e-03
6.230018e-03
6.218233e-03
6.217731e-03
6.228523e-03
6.240922e-03
6.239834e-03
6.215348e-03
6.172586e-03
6.131753e-03
6.115625e-03
6.132184e-03
6.166799e-03
6.193848e-03
6.200924e-03
6.203474e-03
6.233086e-03
6.308325e-03
6.416947e-03
6.527141e-03
6.614037e-03
6.673875e-03
6.716250e-03
6.748641e-03
6.771048e-03
6.783602e-03
6.794736e-03
6.817561e-03
6.857865e-03
6.909274e-03
6.963071e-03
7.021832e-03
7.100031e-03
7.209063e-03
7.342942e-03
7.481099e-03
7.604924e-03
7.709250e-03
7.797901e-03
7.872477e-03
7.928815e-03
7.961812e-03
7.969241e-03
7.951140e-03
7.909100e-03
7.847982e-03
7.777591e-03
7.710103e-03
7.651073e-03
7.590523e-03
7.507919e-03
7.392988e-03
7.261436e-03
7.146179e-03
7.073904e-03
7.051912e-03
7.072713e-03
7.124593e-03
7.197145e-03
7.279237e-03
7.353532e-03
7.396272e-03
7.387663e-03
7.326266e-03
7.232921e-03
7.137144e-03
7.056271e-03
6.987004e-03
6.917340e-03
6.844574e-03
6.779806e-03
6.738443e-03
6.731145e-03
6.762754e-03
6.834810e-03
6.945550e-03
7.086546e-03
7.240597e-03
7.386397e-03
7.508138e-03
7.599998e-03
7.660221e-03
7.683466e-03
7.662162e-03
7.595510e-03
7.495882e-03
7.384063e-03
7.274779e-03
7.166568e-03
7.049500e-03
6.924199e-03
6.809115e-03
6.727463e-03
6.692599e-03
6.707464e-03
6.768264e-03
6.861158e-03
6.961136e-03
7.044231e-03
7.104916e-03
7.162102e-03
7.247472e-03
7.381353e-03
7.552075e-03
7.721302e-03
7.857506e-03
7.965176e-03
8.078954e-03
8.232319e-03
8.434334e-03
8.669669e-03
8.912344e-03
9.140589e-03
9.344147e-03
9.518513e-03
9.652865e-03
9.729076e-03
9.740222e-03
9.713918e-03
9.711609e-03
9.791243e-03
9.959700e-03
1.016090e-02
1.031598e-02
1.037952e-02
1.036322e-02
1.032086e-02
1.031963e-02
1.040908e-02
1.059034e-02
1.080869e-02
1.099293e-02
1.112146e-02
1.125539e-02
1.149674e-02
1.189844e-02
1.240929e-02
1.291253e-02
1.332023e-02
1.362355e-02
1.385471e-02
1.401806e-02
1.406614e-02
1.392982e-02
1.356473e-02
1.298389e-02
1.225494e-02
1.145051e-02
1.058822e-02
9.627794e-03
8.535790e-03
7.349593e-03
6.178899e-03
5.150748e-03
4.348929e-03
3.793837e-03
3.471935e-03
3.383251e-03
3.559570e-03
4.033654e-03
4.797327e-03
5.803723e-03
7.009593e-03
8.397284e-03
9.949076e-03
1.162184e-02
1.337026e-02
1.519207e-02
1.713203e-02
1.922796e-02
2.144595e-02
2.366414e-02
2.572015e-02
2.748813e-02
2.893583e-02
3.012122e-02
3.111917e-02
3.193214e-02
3.247773e-02
3.267586e-02
3.253463e-02
3.213102e-02
3.152371e-02
3.072692e-02
2.978162e-02
2.880972e-02
2.795130e-02
2.724529e-02
2.659011e-02
2.583167e-02
2.489971e-02
2.387082e-02
2.290916e-02
2.215156e-02
2.163848e-02
2.132957e-02
2.118023e-02
2.122151e-02
2.156144e-02
2.227874e-02
2.330488e-02
2.442679e-02
2.541769e-02
2.616491e-02
2.668553e-02
2.705339e-02
2.731318e-02
2.741974e-02
2.724178e-02
2.666460e-02
2.571920e-02
2.459710e-02
2.351433e-02
2.254597e-02
2.158308e-02
2.044271e-02
1.902328e-02
1.737857e-02
1.567014e-02
1.405538e-02
1.260164e-02
1.128268e-02
1.005082e-02
8.916491e-03
7.952092e-03
7.215934e-03
6.690127e-03
6.301875e-03
5.986364e-03
5.718910e-03
5.512400e-03
5.412803e-03
5.495650e-03
5.853370e-03
6.582594e-03
7.777492e-03
9.512660e-03
1.179711e-02
1.452400e-02
1.749520e-02
2.055503e-02
2.370847e-02
2.704917e-02
3.054667e-02
3.395762e-02
3.698453e-02
3.950443e-02
4.164155e-02
4.364895e-02
4.571269e-02
4.781173e-02
4.972441e-02
5.116762e-02
5.194601e-02
5.200068e-02
5.135408e-02
5.002660e-02
4.801549e-02
4.536561e-02
4.223647e-02
3.885629e-02
3.540214e-02
3.193294e-02
2.843324e-02
2.491633e-02
2.147519e-02
1.821584e-02
1.514505e-02
1.216172e-02
9.208502e-03
6.447387e-03
4.244631e-03
2.935721e-03
2.591883e-03
2.996523e-03
3.820139e-03
4.830321e-03
5.966432e-03
7.248468e-03
8.668216e-03
1.017568e-02
1.170413e-02
1.316201e-02
1.442578e-02
1.540659e-02
1.616076e-02
1.689115e-02
1.779722e-02
1.897652e-02
2.051859e-02
2.259508e-02
2.530699e-02
2.843100e-02
3.143505e-02
3.383949e-02
3.559012e-02
3.711243e-02
3.904563e-02
4.188107e-02
4.572294e-02
5.026802e-02
5.497346e-02
5.933352e-02
6.314658e-02
6.657048e-02
6.987995e-02
7.315258e-02
7.619474e-02
7.874348e-02
8.068410e-02
8.204251e-02
8.282684e-02
8.301095e-02
8.272101e-02
8.229988e-02
8.204952e-02
8.195791e-02
8.180431e-02
8.156855e-02
8.165942e-02
8.264999e-02
8.480181e-02
8.788576e-02
9.141453e-02
9.500370e-02
9.856685e-02
1.022768e-01
1.063624e-01
1.108363e-01
1.153543e-01
1.193471e-01
1.222938e-01
1.239512e-01
1.244644e-01
1.243191e-01
1.241250e-01
1.242907e-01
1.247783e-01
1.252020e-01
1.252246e-01
1.248313e-01
1.242311e-01
1.236019e-01
1.229947e-01
1.224344e-01
1.220500e-01
1.220919e-01
1.228093e-01
1.242634e-01
1.262694e-01
1.285970e-01
1.312175e-01
1.342587e-01
1.377558e-01
1.416224e-01
1.458849e-01
1.507807e-01
1.565357e-01
1.630904e-01
1.701165e-01
1.773062e-01
1.845307e-01
1.916469e-01
1.982698e-01
2.039012e-01
2.083205e-01
2.117721e-01
2.146958e-01
2.172970e-01
2.193955e-01
2.206231e-01
2.206852e-01
2.194407e-01
2.168963e-01
2.133086e-01
2.092693e-01
2.055063e-01
2.024574e-01
2.000290e-01
1.978452e-01
1.957433e-01
1.939659e-01
1.929122e-01
1.928250e-01
1.937182e-01
1.955246e-01
1.982733e-01
2.021150e-01
2.071882e-01
2.135160e-01
2.211139e-01
2.301801e-01
2.410101e-01
2.536641e-01
2.679090e-01
2.835535e-01
3.006292e-01
3.191177e-01
3.386501e-01
3.586167e-01
3.784868e-01
3.979182e-01
4.166438e-01
4.343677e-01
4.507300e-01
4.653344e-01
4.778615e-01
4.881845e-01
4.963961e-01
5.027866e-01
5.077970e-01
5.118913e-01
5.154014e-01
5.185218e-01
5.214889e-01
5.247363e-01
5.288110e-01
5.340754e-01
5.404092e-01
5.471258e-01
5.532562e-01
5.581297e-01
5.618555e-01
5.652730e-01
5.693624e-01
5.745824e-01
5.806601e-01
5.869729e-01
5.931903e-01
5.996628e-01
6.073116e-01
6.172258e-01
6.302863e-01
6.469009e-01
6.668250e-01
6.891730e-01
7.127612e-01
7.366617e-01
7.605541e-01
7.846043e-01
8.090341e-01
8.337619e-01
8.583679e-01
8.823311e-01
9.052953e-01
9.271818e-01
9.481402e-01
9.684684e-01
9.885506e-01
1.008695e+00
1.028889e+00
1.048703e+00
1.067446e+00
1.084396e+00
1.098955e+00
1.110680e+00
1.119253e+00
1.124370e+00
1.125648e+00
1.122842e+00
1.116109e+00
1.105806e+00
1.092091e+00
1.075072e+00
1.055305e+00
1.033874e+00
1.011922e+00
9.901014e-01
9.682934e-01
9.457219e-01
9.213820e-01
8.945511e-01
8.650654e-01
8.331793e-01
7.991074e-01
7.627187e-01
7.238505e-01
6.829262e-01
6.410276e-01
5.992855e-01
5.582775e-01
5.179164e-01
4.778047e-01
4.376910e-01
3.975922e-01
3.576830e-01
3.183397e-01
2.802367e-01
2.441834e-01
2.108099e-01
1.804276e-01
1.531251e-01
1.288837e-01
1.076160e-01
8.925226e-02
7.391846e-02
6.205115e-02
5.423813e-02
5.079150e-02
5.137784e-02
5.504254e-02
6.059716e-02
6.705967e-02
7.389717e-02
8.101306e-02
8.857942e-02
9.681992e-02
1.057571e-01
1.150239e-01
1.238919e-01
1.314103e-01
1.364437e-01
1.377587e-01
1.344203e-01
1.262157e-01
1.136181e-01
9.736298e-02
7.806251e-02
5.604250e-02
3.131875e-02
3.588071e-03
-2.778729e-02
-6.370755e-02
-1.050926e-01
-1.525691e-01
-2.063009e-01
-2.659921e-01
-3.309100e-01
-3.999222e-01
-4.716928e-01
-5.450253e-01
-6.190982e-01
-6.934465e-01
-7.678058e-01
-8.419887e-01
-9.158636e-01
-9.893948e-01
-1.062630e+00
-1.135588e+00
-1.208203e+00
-1.280480e+00
-1.352692e+00
-1.425269e+00
-1.498446e+00
-1.572115e+00
-1.645975e+00
-1.719684e+00
-1.792844e+00
-1.865030e+00
-1.936046e+00
-2.006162e+00
-2.076010e+00
-2.146323e+00
-2.217767e+00
-2.290917e+00
-2.366294e+00
-2.444274e+00
-2.524803e+00
-2.607153e+00
-2.689926e+00
-2.771264e+00
-2.849166e+00
-2.921876e+00
-2.988145e+00
-3.047297e+00
-3.099164e+00
-3.143949e+00
-3.181965e+00
-3.213324e+00
-3.237839e+00
-3.255103e+00
-3.264550e+00
-3.265488e+00
-3.257228e+00
-3.239289e+00
-3.211435e+00
-3.173508e+00
-3.125263e+00
-3.066323e+00
-2.996214e+00
-2.914345e+00
-2.819881e+00
-2.711620e+00
-2.588143e+00
-2.448300e+00
-2.291752e+00
-2.119218e+00
-1.932336e+00
-1.733371e+00
-1.525029e+00
-1.310355e+00
-1.092611e+00
-8.750670e-01
-6.607255e-01
-4.520408e-01
-2.508287e-01
-5.855343e-02
1.232356e-01
2.927877e-01
4.483558e-01
5.883350e-01
7.111506e-01
8.150883e-01
8.985581e-01
9.607578e-01
1.001960e+00
1.023241e+00
1.026130e+00
1.012296e+00
9.833337e-01
9.407798e-01
8.862282e-01
8.213461e-01
7.477413e-01
6.668049e-01
5.796499e-01
4.872621e-01
3.908850e-01
2.923949e-01
1.942632e-01
9.890533e-02
7.864329e-03
-7.834560e-02
-1.596943e-01
-2.360749e-01
-3.069730e-01
-3.713719e-01
-4.280565e-01
-4.761190e-01
-5.152666e-01
-5.457835e-01
-5.682211e-01
-5.829864e-01
-5.900345e-01
-5.888948e-01
-5.791332e-01
-5.608687e-01
-5.347938e-01
-5.017835e-01
-4.626351e-01
-4.180487e-01
-3.685369e-01
-3.142612e-01
-2.551874e-01
-1.916127e-01
-1.244774e-01
-5.508012e-02
1.543109e-02
8.627138e-02
1.568932e-01
2.267924e-01
2.954750e-01
3.625893e-01
4.279779e-01
4.914765e-01
5.526960e-01
6.110616e-01
6.659556e-01
7.166951e-01
7.624281e-01
8.022054e-01
8.352735e-01
8.614336e-01
8.812508e-01
8.958752e-01
9.065210e-01
9.139637e-01
9.183398e-01
9.192853e-01
9.162384e-01
9.086979e-01
8.963920e-01
8.793568e-01
8.578794e-01
8.323505e-01
8.031256e-01
7.704741e-01
7.346129e-01
6.957215e-01
6.539155e-01
6.093214e-01
5.622614e-01
5.133081e-01
4.630733e-01
4.119168e-01
3.598339e-01
3.065892e-01
2.519851e-01
1.961022e-01
1.394191e-01
8.282249e-02
2.753055e-02
-2.511443e-02
-7.397907e-02
-1.183673e-01
-1.579198e-01
-1.923581e-01
-2.214106e-01
-2.448971e-01
-2.627459e-01
-2.749330e-01
-2.814545e-01
-2.823458e-01
-2.777001e-01
-2.676629e-01
-2.524531e-01
-2.324719e-01
-2.084016e-01
-1.811459e-01
-1.516490e-01
-1.207400e-01
-8.905501e-02
-5.706247e-02
-2.520779e-02
5.894642e-03
3.534229e-02
6.196488e-02
8.448976e-02
1.017761e-01
1.129660e-01
1.174729e-01
1.148882e-01
1.049240e-01
8.741087e-02
6.234376e-02
2.997997e-02
-9.050467e-03
-5.370766e-02
-1.026136e-01
-1.541393e-01
-2.063260e-01
-2.566573e-01
-3.021641e-01
-3.401427e-01
-3.688165e-01
-3.873552e-01
-3.956646e-01
-3.943784e-01
-3.847806e-01
-3.684152e-01
-3.466868e-01
-3.208088e-01
-2.919556e-01
-2.612591e-01
-2.296474e-01
-1.978012e-01
-1.663250e-01
-1.359999e-01
-1.079175e-01
-8.336632e-02
-6.356452e-02
-4.944232e-02
-4.150377e-02
-3.972857e-02
-4.360275e-02
-5.231832e-02
-6.496125e-02
-8.053836e-02
-9.793392e-02
-1.159364e-01
-1.333350e-01
-1.490175e-01
-1.620254e-01
-1.715434e-01
-1.768227e-01
-1.771086e-01
-1.716763e-01
-1.600092e-01
-1.420492e-01
-1.183730e-01
-9.010957e-02
-5.854795e-02
-2.475856e-02
1.039191e-02
4.597539e-02
8.088565e-02
1.139151e-01
1.438456e-01
1.695021e-01
1.898236e-01
2.039598e-01
2.113139e-01
2.115399e-01
2.045850e-01
1.907620e-01
1.707349e-01
1.453914e-01
1.157130e-01
8.274859e-02
4.772883e-02
1.227576e-02
-2.150282e-02
-5.128136e-02
-7.509901e-02
-9.189560e-02
-1.016677e-01
-1.052337e-01
-1.037866e-01
-9.839922e-02
-8.969972e-02
-7.786756e-02
-6.284133e-02
-4.453716e-02
-2.296122e-02
1.766548e-03
2.936300e-02
5.930937e-02
9.087225e-02
1.232155e-01
1.555063e-01
1.869776e-01
2.169890e-01
2.451227e-01
2.712702e-01
2.956459e-01
3.187232e-01
3.411183e-01
3.634476e-01
3.862103e-01
4.097327e-01
4.341397e-01
4.593294e-01
4.849834e-01
5.106313e-01
5.357461e-01
5.598363e-01
5.825171e-01
6.035700e-01
6.229969e-01
6.410460e-01
6.581812e-01
6.749716e-01
6.919273e-01
7.093645e-01
7.273545e-01
7.457243e-01
7.640931e-01
7.819565e-01
7.987819e-01
8.140539e-01
8.272848e-01
8.380583e-01
8.461216e-01
8.514766e-01
8.544268e-01
8.555395e-01
8.554902e-01
8.548625e-01
8.540472e-01
8.532720e-01
8.526596e-01
8.522311e-01
8.518936e-01
8.514867e-01
8.508837e-01
8.500633e-01
8.491080e-01
8.481692e-01
8.474186e-01
8.469717e-01
8.468006e-01
8.466992e-01
8.463330e-01
8.453310e-01
8.433648e-01
8.401964e-01
8.357106e-01
8.299272e-01
8.229724e-01
8.150126e-01
8.061878e-01
7.965826e-01
7.862235e-01
7.750657e-01
7.629768e-01
7.497468e-01
7.351147e-01
7.187903e-01
7.004852e-01
6.799519e-01
6.570184e-01
6.316090e-01
6.037589e-01
5.736503e-01
5.416375e-01
5.081980e-01
4.738275e-01
4.389640e-01
4.039725e-01
3.691517e-01
3.347293e-01
3.008635e-01
2.676631e-01
2.351975e-01
2.034651e-01
1.723467e-01
1.415982e-01
1.108857e-01
7.983262e-02
4.806687e-02
1.528698e-02
-1.865395e-02
-5.367288e-02
-8.942986e-02
-1.253801e-01
-1.608945e-01
-1.953896e-01
-2.284149e-01
-2.596982e-01
-2.891745e-01
-3.169822e-01
-3.433898e-01
-3.686681e-01
-3.929876e-01
-4.163841e-01
-4.387789e-01
-4.600486e-01
-4.801375e-01
-4.991408e-01
-5.172952e-01
-5.348989e-01
-5.522290e-01
-5.694834e-01
-5.867391e-01
-6.039177e-01
-6.207622e-01
-6.368470e-01
-6.516390e-01
-6.645950e-01
-6.752412e-01
-6.831915e-01
-6.881169e-01
-6.897343e-01
-6.878692e-01
-6.825601e-01
-6.741155e-01
-6.630815e-01
-6.501427e-01
-6.359799e-01
-6.211453e-01
-6.060388e-01
-5.909787e-01
-5.762753e-01
-5.622478e-01
-5.491986e-01
-5.373864e-01
-5.270176e-01
-5.182483e-01
-5.111873e-01
-5.058985e-01
-5.024015e-01
-5.006697e-01
-5.006331e-01
-5.021838e-01
-5.051659e-01
-5.093548e-01
-5.144654e-01
-5.202083e-01
-5.263538e-01
-5.327539e-01
-5.393270e-01
-5.460463e-01
