EVENT_NAME: None
EVENT_ID: EMSC-20160824_0000006
EVENT_DATE_YYYYMMDD: 20160824
EVENT_TIME_HHMMSS: 013632
EVENT_LATITUDE_DEGREE: 42.6983
EVENT_LONGITUDE_DEGREE: 13.2335
EVENT_DEPTH_KM: 8.1
HYPOCENTER_REFERENCE: Spallarossa_et_al_2021
MAGNITUDE_W: 6.0
MAGNITUDE_W_REFERENCE: TDMT-INGV
MAGNITUDE_L: 
MAGNITUDE_L_REFERENCE: 
FOCAL_MECHANISM: Normal faulting
NETWORK: IT
STATION_CODE: AMT
STATION_NAME: AMATRICE
STATION_LATITUDE_DEGREE: 42.632500
STATION_LONGITUDE_DEGREE: 13.286600
STATION_ELEVATION_M: 933
LOCATION: 
SENSOR_DEPTH_M: 0.0
VS30_M/S: 670
SITE_CLASSIFICATION_EC8: B
MORPHOLOGIC_CLASSIFICATION: 
EPICENTRAL_DISTANCE_KM: 8.5
EARTHQUAKE_BACKAZIMUTH_DEGREE: 149.2
DATE_TIME_FIRST_SAMPLE_YYYYMMDD_HHMMSS: 20160824_013629.104
DATE_TIME_FIRST_SAMPLE_PRECISION: milliseconds
SAMPLING_INTERVAL_S: 0.005000
NDATA: 5579
DURATION_S: 27.895
STREAM: HGE
UNITS: cm/s
INSTRUMENT: HG
INSTRUMENT_ANALOG/DIGITAL: D
INSTRUMENTAL_FREQUENCY_HZ: 
INSTRUMENTAL_DAMPING: 
FULL_SCALE_G: 
N_BIT_DIGITAL_CONVERTER: 
PGV_CM/S: 43.548805
TIME_PGV_S: 9.065000
BASELINE_CORRECTION: BASELINE REMOVED
FILTER_TYPE: BUTTERWORTH
FILTER_ORDER: 2
LOW_CUT_FREQUENCY_HZ: 0.060
HIGH_CUT_FREQUENCY_HZ: 40.000
LATE/NORMAL_TRIGGERED: NT
DATABASE_VERSION: 0.5
HEADER_FORMAT: DYNA 1.2
DATA_TYPE: VELOCITY
PROCESSING: manual (Paolucci et al., 2011)
DATA_TIMESTAMP_YYYYMMDD_HHMMSS: 20260223_162425.382
DATA_LICENSE: CC-BY3_0-IT (http://creativecommons.org/licenses/by/3.0/deed.en)
DATA_CITATION: Felicetta C., Russo E., D Amico M., Sgobba S., Lanzano G., Mascandola C., Pacor F., Luzi L. (2023) Italian Accelerometric Archive v 4.0 - Istituto Nazionale di Geofisica e Vulcanologia, Dipartimento della Protezione Civile Nazionale. doi: 10.13127/itaca.4.0
DATA_CREATOR: ITACA working group
ORIGINAL_DATA_MEDIATOR_CITATION: Ufficio Rischio Sismico e Vulcanico del Dipartimento della Protezione Civile (http://www.protezionecivile.gov.it/)
ORIGINAL_DATA_MEDIATOR: Rete Accelerometrica Nazionale - RAN Download (http://www.mot1.it/randownload/)
ORIGINAL_DATA_CREATOR_CITATION: Presidency Of Counsil Of Ministers-Civil Protection Department. (1972). Italian Strong Motion Network. Presidency of Counsil of Ministers - Civil Protection Department. https://doi.org/10.7914/SN/IT http://www.fdsn.org/networks/detail/IT/
ORIGINAL_DATA_CREATOR: network: IT (Italian Strong Motion Network (RAN)); owner: Presidency of Counsil of Ministers - Civil Protection Department (PCM - DPC)
USER1: 
USER2: 
USER3: 
USER4: 
USER5: 
[...]
-0.004853
-0.004902
-0.004941
-0.004968
-0.005002
-0.005061
-0.005144
-0.005232
-0.005307
-0.005356
-0.005382
-0.005398
-0.005421
-0.005447
-0.005462
-0.005470
-0.005492
-0.005536
-0.005585
-0.005624
-0.005646
-0.005641
-0.005608
-0.005569
-0.005556
-0.005575
-0.005606
-0.005632
-0.005635
-0.005609
-0.005578
-0.005577
-0.005609
-0.005643
-0.005657
-0.005661
-0.005682
-0.005719
-0.005751
-0.005777
-0.005817
-0.005869
-0.005902
-0.005911
-0.005921
-0.005946
-0.005970
-0.005978
-0.005981
-0.005993
-0.006011
-0.006025
-0.006036
-0.006045
-0.006062
-0.006103
-0.006162
-0.006206
-0.006217
-0.006223
-0.006257
-0.006313
-0.006351
-0.006354
-0.006360
-0.006404
-0.006464
-0.006508
-0.006546
-0.006593
-0.006644
-0.006691
-0.006734
-0.006780
-0.006826
-0.006870
-0.006920
-0.006980
-0.007036
-0.007079
-0.007118
-0.007164
-0.007199
-0.007213
-0.007219
-0.007232
-0.007248
-0.007258
-0.007270
-0.007294
-0.007330
-0.007357
-0.007352
-0.007333
-0.007334
-0.007355
-0.007366
-0.007358
-0.007351
-0.007361
-0.007391
-0.007434
-0.007469
-0.007481
-0.007482
-0.007492
-0.007510
-0.007523
-0.007530
-0.007545
-0.007574
-0.007600
-0.007612
-0.007613
-0.007608
-0.007605
-0.007611
-0.007627
-0.007655
-0.007694
-0.007736
-0.007768
-0.007779
-0.007779
-0.007776
-0.007762
-0.007729
-0.007690
-0.007661
-0.007643
-0.007633
-0.007618
-0.007593
-0.007569
-0.007559
-0.007567
-0.007591
-0.007629
-0.007663
-0.007672
-0.007660
-0.007653
-0.007661
-0.007664
-0.007652
-0.007640
-0.007638
-0.007642
-0.007647
-0.007649
-0.007648
-0.007652
-0.007669
-0.007696
-0.007717
-0.007726
-0.007741
-0.007777
-0.007813
-0.007819
-0.007809
-0.007816
-0.007842
-0.007862
-0.007871
-0.007881
-0.007897
-0.007919
-0.007949
-0.007981
-0.007999
-0.008009
-0.008026
-0.008053
-0.008077
-0.008090
-0.008098
-0.008101
-0.008089
-0.008063
-0.008040
-0.008033
-0.008039
-0.008045
-0.008047
-0.008050
-0.008060
-0.008075
-0.008095
-0.008113
-0.008116
-0.008105
-0.008104
-0.008125
-0.008148
-0.008152
-0.008150
-0.008157
-0.008169
-0.008176
-0.008180
-0.008185
-0.008188
-0.008186
-0.008187
-0.008202
-0.008225
-0.008242
-0.008245
-0.008240
-0.008233
-0.008215
-0.008185
-0.008158
-0.008143
-0.008144
-0.008161
-0.008184
-0.008196
-0.008192
-0.008188
-0.008202
-0.008224
-0.008220
-0.008190
-0.008164
-0.008159
-0.008160
-0.008152
-0.008130
-0.008083
-0.008024
-0.007988
-0.007988
-0.007997
-0.007992
-0.007976
-0.007955
-0.007934
-0.007920
-0.007924
-0.007936
-0.007929
-0.007901
-0.007885
-0.007907
-0.007952
-0.007987
-0.007995
-0.007982
-0.007963
-0.007949
-0.007946
-0.007952
-0.007961
-0.007963
-0.007951
-0.007925
-0.007897
-0.007881
-0.007876
-0.007871
-0.007849
-0.007818
-0.007804
-0.007817
-0.007833
-0.007828
-0.007803
-0.007777
-0.007758
-0.007748
-0.007750
-0.007754
-0.007747
-0.007735
-0.007726
-0.007711
-0.007692
-0.007685
-0.007697
-0.007704
-0.007678
-0.007638
-0.007620
-0.007624
-0.007613
-0.007574
-0.007535
-0.007526
-0.007532
-0.007517
-0.007478
-0.007429
-0.007381
-0.007341
-0.007322
-0.007320
-0.007316
-0.007301
-0.007283
-0.007266
-0.007251
-0.007232
-0.007210
-0.007192
-0.007182
-0.007178
-0.007177
-0.007176
-0.007163
-0.007129
-0.007090
-0.007062
-0.007039
-0.007014
-0.006992
-0.006972
-0.006930
-0.006869
-0.006822
-0.006814
-0.006834
-0.006851
-0.006840
-0.006805
-0.006772
-0.006761
-0.006756
-0.006726
-0.006672
-0.006625
-0.006608
-0.006599
-0.006564
-0.006512
-0.006493
-0.006503
-0.006482
-0.006417
-0.006373
-0.006375
-0.006377
-0.006355
-0.006330
-0.006310
-0.006275
-0.006221
-0.006170
-0.006141
-0.006120
-0.006087
-0.006052
-0.006034
-0.006032
-0.006043
-0.006054
-0.006039
-0.005991
-0.005925
-0.005869
-0.005848
-0.005852
-0.005844
-0.005800
-0.005739
-0.005689
-0.005666
-0.005656
-0.005623
-0.005538
-0.005424
-0.005340
-0.005306
-0.005282
-0.005228
-0.005144
-0.005051
-0.004963
-0.004886
-0.004823
-0.004775
-0.004730
-0.004677
-0.004624
-0.004593
-0.004581
-0.004567
-0.004546
-0.004531
-0.004525
-0.004510
-0.004464
-0.004385
-0.004300
-0.004244
-0.004234
-0.004249
-0.004251
-0.004234
-0.004221
-0.004219
-0.004206
-0.004167
-0.004113
-0.004060
-0.004011
-0.003964
-0.003928
-0.003908
-0.003888
-0.003854
-0.003815
-0.003781
-0.003748
-0.003720
-0.003703
-0.003674
-0.003611
-0.003539
-0.003493
-0.003472
-0.003440
-0.003362
-0.003243
-0.003123
-0.003043
-0.002998
-0.002951
-0.002871
-0.002768
-0.002675
-0.002618
-0.002588
-0.002558
-0.002507
-0.002431
-0.002342
-0.002250
-0.002163
-0.002090
-0.002025
-0.001952
-0.001877
-0.001827
-0.001800
-0.001768
-0.001718
-0.001673
-0.001645
-0.001615
-0.001567
-0.001509
-0.001457
-0.001416
-0.001366
-0.001303
-0.001236
-0.001167
-0.001088
-0.001001
-0.000913
-0.000838
-0.000793
-0.000780
-0.000765
-0.000719
-0.000658
-0.000608
-0.000563
-0.000500
-0.000412
-0.000313
-0.000226
-0.000164
-0.000112
-0.000046
0.000027
0.000079
0.000107
0.000139
0.000195
0.000280
0.000376
0.000453
0.000492
0.000504
0.000512
0.000533
0.000563
0.000596
0.000641
0.000695
0.000739
0.000767
0.000805
0.000875
0.000960
0.001029
0.001072
0.001107
0.001152
0.001209
0.001265
0.001314
0.001366
0.001442
0.001533
0.001608
0.001674
0.001767
0.001885
0.001984
0.002044
0.002090
0.002151
0.002218
0.002267
0.002300
0.002344
0.002405
0.002458
0.002489
0.002507
0.002535
0.002591
0.002663
0.002724
0.002782
0.002858
0.002959
0.003071
0.003175
0.003263
0.003341
0.003418
0.003479
0.003518
0.003559
0.003626
0.003707
0.003767
0.003802
0.003828
0.003853
0.003878
0.003914
0.003967
0.004033
0.004110
0.004201
0.004294
0.004367
0.004419
0.004478
0.004558
0.004636
0.004690
0.004730
0.004784
0.004858
0.004938
0.005006
0.005064
0.005129
0.005211
0.005310
0.005412
0.005492
0.005543
0.005585
0.005647
0.005731
0.005813
0.005880
0.005946
0.006017
0.006076
0.006120
0.006166
0.006224
0.006282
0.006336
0.006392
0.006453
0.006517
0.006582
0.006649
0.006709
0.006765
0.006831
0.006917
0.007013
0.007096
0.007164
0.007230
0.007303
0.007383
0.007468
0.007533
0.007550
0.007531
0.007545
0.007652
0.007830
0.007981
0.008003
0.007851
0.007600
0.007423
0.007462
0.007719
0.008077
0.008363
0.008377
0.007995
0.007393
0.007092
0.007546
0.008598
0.009456
0.009426
0.008670
0.008085
0.008314
0.009019
0.009289
0.008636
0.007397
0.006299
0.005886
0.006235
0.006939
0.007418
0.007493
0.007629
0.008367
0.009536
0.010282
0.009978
0.008978
0.008286
0.008475
0.009137
0.009553
0.009685
0.010165
0.011378
0.013002
0.014498
0.015542
0.015815
0.014904
0.012757
0.009989
0.007466
0.005618
0.004168
0.002570
0.000855
0.000025
0.001230
0.004464
0.008484
0.012084
0.014911
0.017082
0.018791
0.020339
0.021834
0.022843
0.022911
0.022179
0.021001
0.019350
0.017041
0.014220
0.011412
0.009285
0.008216
0.007764
0.006750
0.004343
0.001007
-0.001879
-0.003128
-0.002357
-0.000100
0.002158
0.002480
-0.000218
-0.004897
-0.008552
-0.008167
-0.003226
0.003312
0.006923
0.005410
0.001415
0.000510
0.005922
0.015048
0.021724
0.022039
0.017379
0.011968
0.008475
0.006478
0.004481
0.002511
0.002227
0.004565
0.008061
0.010282
0.010759
0.011752
0.015640
0.021806
0.026776
0.027631
0.024765
0.020865
0.017730
0.014915
0.011268
0.006599
0.001486
-0.003620
-0.008408
-0.012224
-0.014078
-0.013498
-0.011806
-0.012110
-0.016521
-0.022986
-0.026310
-0.023051
-0.014455
-0.004398
0.004160
0.010376
0.014510
0.016418
0.014859
0.008548
-0.001722
-0.012280
-0.018669
-0.019155
-0.016175
-0.013853
-0.013933
-0.014553
-0.012953
-0.008273
-0.001460
0.006322
0.014411
0.022148
0.028199
0.030810
0.029160
0.024348
0.018372
0.012045
0.004649
-0.004261
-0.013331
-0.019926
-0.022364
-0.021857
-0.021642
-0.023413
-0.025060
-0.023017
-0.016330
-0.006973
0.002973
0.012160
0.018579
0.019996
0.016619
0.012137
0.011437
0.017074
0.026776
0.034144
0.033845
0.027241
0.021534
0.022756
0.030673
0.040403
0.047067
0.048535
0.045649
0.040712
0.034873
0.026870
0.015242
0.002229
-0.005261
-0.000462
0.015927
0.033691
0.040240
0.031017
0.012707
-0.003259
-0.008472
-0.000247
0.017890
0.036253
0.043671
0.036848
0.025705
0.026787
0.048269
0.080341
0.102169
0.100648
0.081540
0.060664
0.046233
0.032670
0.009616
-0.027264
-0.073018
-0.116168
-0.145790
-0.160886
-0.172459
-0.192084
-0.218401
-0.237239
-0.234139
-0.205630
-0.160364
-0.111018
-0.064380
-0.017737
0.035264
0.094817
0.152735
0.201279
0.241174
0.277538
0.310358
0.334552
0.349684
0.364362
0.387993
0.419186
0.443598
0.443638
0.411202
0.353595
0.289541
0.237078
0.199590
0.162593
0.109117
0.039627
-0.028246
-0.080721
-0.121463
-0.159358
-0.189059
-0.194380
-0.171683
-0.141202
-0.131037
-0.151687
-0.186393
-0.205777
-0.192331
-0.151521
-0.102616
-0.061782
-0.029866
0.008256
0.067985
0.143460
0.205227
0.224382
0.198181
0.149444
0.104124
0.073572
0.051960
0.021311
-0.035591
-0.115436
-0.189080
-0.224422
-0.216553
-0.193672
-0.192578
-0.228075
-0.283886
-0.328942
-0.341684
-0.322952
-0.290749
-0.263792
-0.246373
-0.226865
-0.192880
-0.147232
-0.105161
-0.077651
-0.063102
-0.053491
-0.041302
-0.019919
0.016569
0.071544
0.145845
0.238980
0.347034
0.456891
0.545377
0.594240
0.611968
0.630687
0.668140
0.699499
0.682191
0.605381
0.503980
0.427423
0.401480
0.412749
0.419809
0.382535
0.288642
0.155679
0.010933
-0.129320
-0.265496
-0.402221
-0.529976
-0.625828
-0.676036
-0.690830
-0.693840
-0.699941
-0.703381
-0.688229
-0.651870
-0.614158
-0.596666
-0.590643
-0.552223
-0.440551
-0.261782
-0.068768
0.080928
0.164723
0.202037
0.227222
0.256407
0.283950
0.301492
0.305691
0.291575
0.252754
0.196162
0.150834
0.146079
0.181212
0.235862
0.308414
0.415297
0.542382
0.624802
0.600810
0.480889
0.350125
0.304464
0.386640
0.567087
0.768374
0.909016
0.941088
0.872013
0.762612
0.684780
0.661894
0.654527
0.608432
0.509747
0.388125
0.271682
0.156865
0.036824
-0.057988
-0.084227
-0.050071
-0.018321
-0.030720
-0.047153
0.018174
0.198114
0.430364
0.616789
0.705755
0.717833
0.712631
0.741992
0.817112
0.894781
0.903600
0.798558
0.589356
0.331474
0.102635
-0.029063
-0.038805
0.033132
0.097516
0.084735
0.004524
-0.078651
-0.120049
-0.125830
-0.121455
-0.112059
-0.076879
0.008379
0.143491
0.290822
0.401197
0.465515
0.524104
0.608233
0.699423
0.773326
0.852497
0.979160
1.151008
1.310932
1.405223
1.437937
1.444909
1.423241
1.324578
1.126270
0.883870
0.690314
0.584745
0.520238
0.419688
0.245529
0.012426
-0.248911
-0.508876
-0.717538
-0.807870
-0.752600
-0.609777
-0.485673
-0.436762
-0.420371
-0.355491
-0.210748
-0.017438
0.178647
0.361286
0.549734
0.768339
1.014644
1.265566
1.519562
1.813256
2.165993
2.530798
2.848986
3.128905
3.415139
3.697694
3.906483
3.993306
3.974039
3.886274
3.745112
3.544785
3.272461
2.920878
2.505419
2.064599
1.642329
1.278090
1.002078
0.818872
0.702009
0.624074
0.593420
0.649481
0.814938
1.052894
1.266748
1.343333
1.226077
0.974704
0.745160
0.683500
0.817882
1.043992
1.215546
1.262561
1.243479
1.294489
1.529762
1.982841
2.612099
3.322927
3.984828
4.469581
4.717643
4.780115
4.778470
4.810044
4.885959
4.945562
4.921205
4.792629
4.592847
4.377290
4.191689
4.065645
4.016439
4.028955
4.038702
3.962805
3.748591
3.390108
2.911779
2.344994
1.714614
1.023254
0.255736
-0.561292
-1.346495
-2.060661
-2.743036
-3.403705
-3.953495
-4.286276
-4.390220
-4.364210
-4.361602
-4.514291
-4.867988
-5.366178
-5.897133
-6.377216
-6.814393
-7.277732
-7.773650
-8.184850
-8.379715
-8.348426
-8.201600
-8.072218
-8.022336
-8.022754
-8.019751
-7.981849
-7.868649
-7.620612
-7.210661
-6.674696
-6.076466
-5.460482
-4.848289
-4.253532
-3.672755
-3.066760
-2.373462
-1.562603
-0.689327
0.117269
0.732939
1.110923
1.292503
1.367501
1.423176
1.513273
1.648099
1.787437
1.853355
1.773609
1.503685
1.006667
0.263014
-0.667686
-1.640917
-2.519521
-3.251029
-3.860095
-4.404001
-4.944750
-5.546136
-6.275072
-7.184053
-8.277013
-9.495287
-10.746375
-11.938229
-12.983594
-13.802429
-14.354129
-14.666499
-14.814565
-14.869671
-14.871864
-14.836584
-14.774977
-14.706231
-14.647000
-14.591668
-14.523018
-14.455344
-14.442432
-14.515416
-14.635414
-14.733684
-14.772023
-14.741878
-14.632007
-14.437150
-14.203289
-14.023031
-13.969610
-14.062669
-14.288762
-14.630029
-15.075477
-15.595973
-16.105759
-16.469961
-16.554659
-16.267515
-15.580573
-14.541885
-13.253848
-11.830437
-10.373283
-8.957129
-7.603030
-6.271820
-4.903122
-3.452720
-1.889419
-0.187552
1.651897
3.587757
5.570822
7.585375
9.649132
11.787890
14.021825
16.373798
18.892799
21.652288
24.695326
27.968618
31.309702
34.506683
37.376503
39.793022
41.668369
42.934681
43.548805
43.508850
42.868301
41.736935
40.242435
38.455044
36.357800
33.910435
31.113611
27.995838
24.563129
20.787540
16.693956
12.439938
8.240343
4.256371
0.577812
-2.766974
-5.792366
-8.510796
-10.910306
-12.976417
-14.720968
-16.187275
-17.431004
-18.477570
-19.275415
-19.698006
-19.626352
-19.071571
-18.208200
-17.241987
-16.269735
-15.276133
-14.179610
-12.879780
-11.336912
-9.612514
-7.829514
-6.103381
-4.487520
-2.953060
-1.409612
0.227934
1.952324
3.652890
5.214976
6.602076
7.829681
8.917275
9.902346
10.855154
11.814751
12.714949
13.427051
13.879459
14.102242
14.168057
14.124359
13.979845
13.736514
13.422860
13.077724
12.699725
12.243894
11.673113
10.978806
10.147912
9.146582
7.955476
6.613603
5.232026
3.963438
2.924881
2.129168
1.488528
0.875233
0.189097
-0.609384
-1.508094
-2.461180
-3.407052
-4.295470
-5.105790
-5.844967
-6.530309
-7.172235
-7.778272
-8.361212
-8.918826
-9.411999
-9.790655
-10.046952
-10.231306
-10.416587
-10.648932
-10.920823
-11.176582
-11.336609
-11.319327
-11.058389
-10.528996
-9.772927
-8.877652
-7.910503
-6.887654
-5.810492
-4.697301
-3.569760
-2.437425
-1.304308
-0.178258
0.929141
2.007447
3.041952
3.996251
4.814046
5.451158
5.899379
6.181799
6.336991
6.398509
6.370935
6.220487
5.889530
5.324518
4.504976
3.457262
2.237995
0.901363
-0.516935
-1.992836
-3.502629
-5.013421
-6.472758
-7.806087
-8.931438
-9.781197
-10.305127
-10.437353
-10.066259
-9.101357
-7.595720
-5.734758
-3.707729
-1.661896
0.257256
1.919554
3.273080
4.345687
5.175594
5.770626
6.139301
6.322357
6.369239
6.295224
6.065037
5.616469
4.910238
3.960360
2.824441
1.587709
0.355041
-0.774837
-1.743114
-2.528586
-3.115421
-3.479113
-3.600494
-3.479730
-3.136494
-2.601584
-1.903597
-1.055847
-0.057193
1.086456
2.333422
3.591998
4.735243
5.652689
6.312323
6.757879
7.030094
7.116696
6.982052
6.605880
5.986119
5.131287
4.064311
2.827237
1.470813
0.045193
-1.390969
-2.764594
-4.005424
-5.068695
-5.935698
-6.592874
-7.003951
-7.090616
-6.755716
-5.955707
-4.763529
-3.359318
-1.954423
-0.713199
0.289420
1.077476
1.739901
2.366431
3.005247
3.660833
4.315189
4.945554
5.519289
5.989274
6.312576
6.468658
6.458154
6.294252
6.002288
5.626729
5.229501
4.875147
4.615455
4.479036
4.465856
4.552527
4.704482
4.881402
5.037935
5.130803
5.129592
5.022955
4.818033
4.536163
4.210589
3.885371
3.609827
3.427038
3.358086
3.391125
3.487453
3.598002
3.673955
3.673751
3.572688
3.365080
3.054395
2.646185
2.154701
1.612656
1.070999
0.590047
0.222544
-0.009865
-0.125541
-0.163063
-0.155030
-0.122498
-0.085686
-0.067497
-0.081396
-0.120583
-0.164091
-0.191058
-0.187769
-0.150118
-0.089364
-0.034228
-0.020278
-0.073253
-0.200390
-0.393245
-0.633679
-0.897153
-1.156690
-1.390956
-1.591955
-1.764964
-1.921038
-2.071822
-2.231560
-2.417787
-2.645987
-2.926430
-3.264868
-3.661018
-4.106671
-4.586689
-5.081897
-5.570015
-6.021727
-6.402560
-6.687884
-6.874104
-6.972712
-6.998283
-6.964171
-6.884476
-6.773158
-6.640084
-6.493115
-6.346493
-6.223676
-6.149700
-6.142486
-6.210625
-6.353150
-6.555978
-6.788185
-7.003785
-7.151397
-7.190048
-7.102878
-6.899030
-6.605049
-6.256664
-5.895266
-5.561545
-5.281509
-5.055660
-4.863895
-4.679308
-4.478960
-4.253944
-4.017767
-3.800671
-3.630884
-3.520735
-3.466019
-3.450883
-3.451139
-3.435707
-3.368903
-3.216962
-2.958406
-2.591203
-2.129240
-1.590047
-0.985081
-0.323487
0.373028
1.061809
1.688922
2.206802
2.587767
2.832559
2.966914
3.021302
3.012026
2.940679
2.805496
2.609843
2.362435
2.073756
1.753857
1.412198
1.057767
0.699401
0.346358
0.007322
-0.310142
-0.596418
-0.837774
-1.022127
-1.148583
-1.229105
-1.280001
-1.314638
-1.343851
-1.378788
-1.431757
-1.514805
-1.636976
-1.802091
-2.008662
-2.251765
-2.522925
-2.805460
-3.072943
-3.297585
-3.459114
-3.543819
-3.541272
-3.448836
-3.277198
-3.046788
-2.780254
-2.498486
-2.217819
-1.949134
-1.701806
-1.486449
-1.310873
-1.174489
-1.068270
-0.979458
-0.895973
-0.808584
-0.709415
-0.586762
-0.425714
-0.215671
0.048138
0.367859
0.742622
1.165771
1.622787
2.092308
2.547910
2.960032
3.303982
3.570056
3.764532
3.899537
3.981395
4.008617
3.977532
3.884926
3.727781
3.507197
3.234448
2.931199
2.623910
2.338431
2.095904
1.909929
1.787954
1.733541
1.743392
1.804481
1.899033
2.012410
2.136920
2.272891
2.425178
2.593275
2.767292
2.935891
3.093397
3.240107
3.381434
3.524989
3.672838
3.817000
3.946991
4.061368
4.168447
4.277369
4.391137
4.506075
4.616963
4.725234
4.841725
4.978273
5.135809
5.300448
5.449591
5.561528
5.622308
5.628555
5.585400
5.499649
5.376285
5.223602
5.056651
4.889122
4.722651
4.547524
4.352144
4.129541
3.878351
3.603042
3.314192
3.023917
2.736966
2.447845
2.147902
1.831835
1.495942
1.134640
0.744540
0.333398
-0.077524
-0.461766
-0.797631
-1.070946
-1.273150
-1.400935
-1.456920
-1.448578
-1.386517
-1.281965
-1.142009
-0.966666
-0.752150
-0.496855
-0.204282
0.117654
0.457793
0.801627
1.130900
1.425592
1.670663
1.862998
2.009490
2.118077
2.193159
2.237568
2.253797
2.243446
2.208183
2.150674
2.073747
1.979568
1.869781
1.746504
1.613501
1.475042
1.332184
1.181277
1.018189
0.844443
0.669004
0.503494
0.354020
0.217004
0.084107
-0.048472
-0.175869
-0.287927
-0.374085
-0.425680
-0.436110
-0.399106
-0.307465
-0.155420
0.057866
0.327648
0.645266
0.999044
1.373309
1.749665
2.112679
2.453537
2.767153
3.046833
3.282602
3.465469
